{
"type": "FeatureCollection",
"name": "neighborhood_limits",
"crs": { "type": "name", "properties": { "name": "urn:ogc:def:crs:OGC:1.3:CRS84" } },
"features": [
{ "type": "Feature", "properties": { "id": 0, "denumire": "Trei Stejari", "slug": "trei_stejari", "dissolve": false, "dissolve_id": 0 }, "geometry": { "type": "MultiPolygon", "coordinates": [ [ [ [ 24.16216816871944, 45.796754616492578 ], [ 24.16264897026765, 45.796298800473487 ], [ 24.162945073660136, 45.795930874509999 ], [ 24.164847768261751, 45.796674901006504 ], [ 24.16631655835635, 45.795708074665455 ], [ 24.168011090641158, 45.794702393949699 ], [ 24.170731723790439, 45.792858598833703 ], [ 24.171922000793295, 45.792355735033205 ], [ 24.17320902444904, 45.791427673666604 ], [ 24.175114640340229, 45.790086659020076 ], [ 24.175504558668692, 45.789524486270103 ], [ 24.175510422102185, 45.789410006760683 ], [ 24.173379064020555, 45.789481556482237 ], [ 24.173135731529822, 45.789516309170764 ], [ 24.169852939175037, 45.78969856810177 ], [ 24.169447604856, 45.785880372736216 ], [ 24.168943376568045, 45.78565147300985 ], [ 24.166261360693323, 45.786031286819018 ], [ 24.165878063555656, 45.785680839411746 ], [ 24.163587130054829, 45.786003111608771 ], [ 24.162176974295221, 45.786250483944478 ], [ 24.162452555670352, 45.786661405810776 ], [ 24.159755376255095, 45.788327550496049 ], [ 24.157773535728243, 45.789666563196405 ], [ 24.156612575892989, 45.790467911136297 ], [ 24.157490625061424, 45.790517994999767 ], [ 24.157497954353367, 45.790772502101412 ], [ 24.155686153398477, 45.792781943063957 ], [ 24.156046754559505, 45.792922989606552 ], [ 24.157157875210121, 45.793407451099256 ], [ 24.157547793538672, 45.793540319549152 ], [ 24.158195702941811, 45.793779481960613 ], [ 24.158638392171987, 45.793910305409533 ], [ 24.160057343081984, 45.79441519927807 ], [ 24.160019230764249, 45.794871030704279 ], [ 24.160332924457162, 45.795022292326614 ], [ 24.159910757244429, 45.795799034731303 ], [ 24.160579188664844, 45.796097464460189 ], [ 24.160716979352379, 45.796140389152789 ], [ 24.16216816871944, 45.796754616492578 ] ] ] ] } },
{ "type": "Feature", "properties": { "id": 1, "denumire": "Dumbrăvii", "slug": "dumbravii", "dissolve": false, "dissolve_id": 0 }, "geometry": { "type": "MultiPolygon", "coordinates": [ [ [ [ 24.144402392238149, 45.782830412000642 ], [ 24.143533545498219, 45.782165174344975 ], [ 24.141941303393001, 45.783219522238888 ], [ 24.140685439614771, 45.782354827134256 ], [ 24.140505650877955, 45.782207899676237 ], [ 24.140492569627153, 45.782044032054038 ], [ 24.140866099346212, 45.781093347240954 ], [ 24.140810403414292, 45.780994666169711 ], [ 24.140033739001559, 45.780089901298794 ], [ 24.139954621128755, 45.779823634748894 ], [ 24.139869924387483, 45.779244345115757 ], [ 24.140091566955675, 45.778361663630839 ], [ 24.139932719541459, 45.777869158236427 ], [ 24.139034783278653, 45.776737833628097 ], [ 24.138361031976633, 45.775910259121758 ], [ 24.135956467196763, 45.773672080171103 ], [ 24.13447967050406, 45.772317971274589 ], [ 24.134346672953637, 45.77217502820443 ], [ 24.133267057736713, 45.770700180955934 ], [ 24.136336070869355, 45.768731312116891 ], [ 24.138162026316706, 45.770368905028697 ], [ 24.138501514596406, 45.770837097420248 ], [ 24.13919178278941, 45.771454973781942 ], [ 24.140299801670178, 45.772530455167079 ], [ 24.140764357221787, 45.773127473925676 ], [ 24.141921219964971, 45.774709163028596 ], [ 24.145611541679187, 45.773497363335146 ], [ 24.148117088305831, 45.774254891217687 ], [ 24.148096279392607, 45.775062708500947 ], [ 24.14815756874054, 45.775895296134806 ], [ 24.14834307189405, 45.777510125001342 ], [ 24.148644432908544, 45.779493731554581 ], [ 24.148837338637563, 45.780708231060082 ], [ 24.148127075451423, 45.780758416402136 ], [ 24.146495886101594, 45.781306672490274 ], [ 24.14745704536011, 45.782740472125191 ], [ 24.146901512659539, 45.782922269747679 ], [ 24.146478107573824, 45.783074183831339 ], [ 24.146090857916509, 45.782645974248666 ], [ 24.145470263149733, 45.78204868912939 ], [ 24.144433263009361, 45.782852479486991 ], [ 24.144402392238149, 45.782830412000642 ] ] ] ] } },
{ "type": "Feature", "properties": { "id": 2, "denumire": "Lupeni", "slug": "lupeni", "dissolve": false, "dissolve_id": 0 }, "geometry": { "type": "MultiPolygon", "coordinates": [ [ [ [ 24.162879120559154, 45.805248289386924 ], [ 24.160667043607415, 45.807395825720107 ], [ 24.155718773715648, 45.8060178618707 ], [ 24.155054404117553, 45.805777984590442 ], [ 24.156245477915643, 45.804770474301534 ], [ 24.158388781244398, 45.803043253077419 ], [ 24.160287085824095, 45.80149450436268 ], [ 24.160925971254553, 45.801089396746825 ], [ 24.161814754583631, 45.801729770957351 ], [ 24.16236798141005, 45.80208627161214 ], [ 24.164634373980856, 45.803075508626293 ], [ 24.166250782506076, 45.803650141197274 ], [ 24.167454118261311, 45.804321815725068 ], [ 24.16804029463416, 45.805172086894217 ], [ 24.16974712070477, 45.805997898450322 ], [ 24.16915938764663, 45.806641117074456 ], [ 24.171573011492956, 45.807463953976573 ], [ 24.174061908955046, 45.808496275332118 ], [ 24.173776859391609, 45.808751024400138 ], [ 24.171567373454213, 45.808901653573805 ], [ 24.170745035873399, 45.809032280825193 ], [ 24.169638835038239, 45.808548854584885 ], [ 24.167754762616422, 45.807835715355765 ], [ 24.167105739778702, 45.807609680898267 ], [ 24.165578141217662, 45.806573992627321 ], [ 24.164560666601492, 45.805910849596856 ], [ 24.164019187767096, 45.805548981959227 ], [ 24.162879120559154, 45.805248289386924 ] ] ] ] } },
{ "type": "Feature", "properties": { "id": 3, "denumire": "Reșita", "slug": "resita", "dissolve": false, "dissolve_id": 0 }, "geometry": { "type": "MultiPolygon", "coordinates": [ [ [ [ 24.160667054036441, 45.807395826667666 ], [ 24.162879130986827, 45.80524829033439 ], [ 24.164019198194186, 45.805548982906494 ], [ 24.165578151644006, 45.806573993574283 ], [ 24.167105750204318, 45.807609681844852 ], [ 24.167754773041707, 45.80783571630225 ], [ 24.169638845462597, 45.808548855531029 ], [ 24.169791970443395, 45.808615770957246 ], [ 24.169264367483105, 45.809195360900752 ], [ 24.168382798438547, 45.809256231560106 ], [ 24.167508374570016, 45.809164669428263 ], [ 24.164037737535669, 45.808376468593664 ], [ 24.160667054036441, 45.807395826667666 ] ] ] ] } },
{ "type": "Feature", "properties": { "id": 4, "denumire": "Lazaret", "slug": "lazaret", "dissolve": false, "dissolve_id": 0 }, "geometry": { "type": "MultiPolygon", "coordinates": [ [ [ [ 24.160925981682915, 45.801089397695044 ], [ 24.162173041374508, 45.800338936379049 ], [ 24.163914696513253, 45.798869525346355 ], [ 24.16529575513745, 45.797727961022794 ], [ 24.166108539405453, 45.797123993185792 ], [ 24.166530100217773, 45.79727359035833 ], [ 24.168482699041537, 45.796344010712829 ], [ 24.169223587645668, 45.795657720412095 ], [ 24.170650428537705, 45.794700421262029 ], [ 24.17122696567273, 45.794581948284808 ], [ 24.17149030319943, 45.795217626699404 ], [ 24.171143130226667, 45.795307102179542 ], [ 24.171727960252909, 45.796599324954279 ], [ 24.172241171051962, 45.797795619156076 ], [ 24.175378963834543, 45.797089180109808 ], [ 24.177846791967809, 45.796555008686589 ], [ 24.179771934066586, 45.796153175689547 ], [ 24.182254091336663, 45.795632641550668 ], [ 24.183104212730434, 45.795458145274687 ], [ 24.183416181105191, 45.796441692072889 ], [ 24.183403333274068, 45.796986773696979 ], [ 24.181393836521043, 45.797493689892228 ], [ 24.182700890220545, 45.800712772872913 ], [ 24.183110636049481, 45.801008739068621 ], [ 24.183614980230089, 45.801165680295824 ], [ 24.184276008547052, 45.800935304098672 ], [ 24.184841524575646, 45.801907029845324 ], [ 24.182334462027178, 45.803112316047134 ], [ 24.180349175014936, 45.803282061904312 ], [ 24.180936912739178, 45.803732644731255 ], [ 24.179326257227334, 45.804596751081021 ], [ 24.178186419923406, 45.805246158902257 ], [ 24.176518320250114, 45.806365361724957 ], [ 24.174843719845569, 45.807590120482246 ], [ 24.174061919377042, 45.808496276277658 ], [ 24.171573021916188, 45.807463954922582 ], [ 24.169159398071077, 45.806641118020892 ], [ 24.169747131128844, 45.805997899396743 ], [ 24.16804030505908, 45.805172087841001 ], [ 24.167454128686469, 45.804321816672029 ], [ 24.166250792931816, 45.80365014214447 ], [ 24.16463438440741, 45.803075509573759 ], [ 24.16236799183773, 45.802086272560032 ], [ 24.16181476501157, 45.801729771905379 ], [ 24.160925981682915, 45.801089397695044 ] ] ] ] } },
{ "type": "Feature", "properties": { "id": 5, "denumire": "Broscărie", "slug": "broscarie", "dissolve": false, "dissolve_id": 0 }, "geometry": { "type": "MultiPolygon", "coordinates": [ [ [ [ 24.180669707079286, 45.790743666342941 ], [ 24.181090665304335, 45.790435770333588 ], [ 24.180803394280154, 45.790263340157594 ], [ 24.180710703084884, 45.790107640355686 ], [ 24.180727863949713, 45.789933989354651 ], [ 24.181733082806069, 45.789971872614032 ], [ 24.181741112187982, 45.789922523814759 ], [ 24.18224739921882, 45.789939784788558 ], [ 24.182245901634481, 45.790041994209169 ], [ 24.18318577638717, 45.790052137355701 ], [ 24.183152217728306, 45.790348335419509 ], [ 24.184401424176379, 45.790355572800401 ], [ 24.184420096668202, 45.789911048723368 ], [ 24.184736800248562, 45.789903091261507 ], [ 24.184727938238389, 45.789509480342637 ], [ 24.184287449451052, 45.789489293700683 ], [ 24.18433101429768, 45.788341332171072 ], [ 24.18361277466915, 45.788331081574974 ], [ 24.183547806562586, 45.787611667853582 ], [ 24.184363059097539, 45.786815073351072 ], [ 24.183215556689412, 45.786186724180503 ], [ 24.182620994961503, 45.786712305441547 ], [ 24.181673560224933, 45.786225075502799 ], [ 24.18004327563785, 45.787300306438709 ], [ 24.178169028737962, 45.78823575895634 ], [ 24.177485357857972, 45.788689117190906 ], [ 24.177165244773153, 45.788928729041288 ], [ 24.180669707079286, 45.790743666342941 ] ] ] ] } },
{ "type": "Feature", "properties": { "id": 6, "denumire": "Centru", "slug": "centru", "dissolve": false, "dissolve_id": 0 }, "geometry": { "type": "MultiPolygon", "coordinates": [ [ [ [ 24.143584229749695, 45.79432364001547 ], [ 24.14152209615386, 45.793156037703291 ], [ 24.141277895215314, 45.793049401906174 ], [ 24.139549192583548, 45.79218590166353 ], [ 24.13969230605035, 45.791872589498119 ], [ 24.140252550173095, 45.791535551532846 ], [ 24.139529704638729, 45.790335679125427 ], [ 24.14032299500392, 45.789954718104099 ], [ 24.142260374894022, 45.788358383636883 ], [ 24.14610769902573, 45.786121350598066 ], [ 24.144430592749835, 45.78490764119482 ], [ 24.144702663876526, 45.784697400325854 ], [ 24.146321083957986, 45.783344474851525 ], [ 24.147619501956864, 45.782822139669726 ], [ 24.150658047333817, 45.784545753596085 ], [ 24.152735043837357, 45.785864453016806 ], [ 24.150339359563297, 45.786306124021536 ], [ 24.150931848819816, 45.788007446871809 ], [ 24.151385720421327, 45.787838850294186 ], [ 24.151963272214982, 45.788630469723181 ], [ 24.154901681070832, 45.787611028645813 ], [ 24.153117649827859, 45.789631935005765 ], [ 24.153119060512623, 45.789665534337118 ], [ 24.155838081537699, 45.790392403418437 ], [ 24.156612586322748, 45.790467912086342 ], [ 24.157490635490721, 45.79051799594972 ], [ 24.157497964782674, 45.790772503051365 ], [ 24.155686163828918, 45.792781944013889 ], [ 24.15715788563983, 45.79340745204891 ], [ 24.158195713371011, 45.793779482910061 ], [ 24.15863840260095, 45.793910306358917 ], [ 24.160057353510251, 45.79441520022722 ], [ 24.160019241192565, 45.794871031653372 ], [ 24.160332934885322, 45.795022293275622 ], [ 24.15991076767288, 45.795799035680311 ], [ 24.160579199092965, 45.796097465409076 ], [ 24.160716989780425, 45.796140390101634 ], [ 24.162048020695828, 45.796703757178413 ], [ 24.161148419942005, 45.79754502819501 ], [ 24.159802152395557, 45.798169274597115 ], [ 24.159025421833743, 45.798217291814538 ], [ 24.158049890358551, 45.79794675799004 ], [ 24.157738393004731, 45.798350210701365 ], [ 24.156783037893327, 45.798142961990401 ], [ 24.156109072027359, 45.798127228593636 ], [ 24.156368567321447, 45.796209211957787 ], [ 24.156968352909168, 45.79630232164542 ], [ 24.157616908183666, 45.795836870552257 ], [ 24.155686935379482, 45.795051399365924 ], [ 24.154873418295693, 45.794614093175561 ], [ 24.153299787126219, 45.793766730720044 ], [ 24.150944946012416, 45.792511810164079 ], [ 24.1489827925712, 45.791457273898743 ], [ 24.147805194808878, 45.792230428707803 ], [ 24.148169862551427, 45.792624127423082 ], [ 24.144956558556625, 45.794260713609404 ], [ 24.144657193207365, 45.793993116778417 ], [ 24.144187919944589, 45.79390898293962 ], [ 24.143584229749695, 45.79432364001547 ] ] ] ] } },
{ "type": "Feature", "properties": { "id": 7, "denumire": "Hipodrom I", "slug": "hipodrom1", "dissolve": true, "dissolve_id": 1 }, "geometry": { "type": "MultiPolygon", "coordinates": [ [ [ [ 24.161262364914208, 45.78466051962635 ], [ 24.163687890151614, 45.783370048079846 ], [ 24.166225634158707, 45.782015519225787 ], [ 24.167555441493235, 45.781305089701164 ], [ 24.1664152115166, 45.780379112207989 ], [ 24.1648456758641, 45.779914849588323 ], [ 24.163257127986967, 45.779439677282021 ], [ 24.162825045765011, 45.779186604529286 ], [ 24.162294592530689, 45.77857945239392 ], [ 24.16084732787979, 45.778034075613128 ], [ 24.160048829920665, 45.778016104417802 ], [ 24.159399260606715, 45.777671398000031 ], [ 24.159065310571084, 45.777151666567683 ], [ 24.15477789410394, 45.779330452121634 ], [ 24.156622030753269, 45.780581521598236 ], [ 24.15802766775515, 45.78159688871105 ], [ 24.161262364914208, 45.78466051962635 ] ] ] ] } },
{ "type": "Feature", "properties": { "id": 8, "denumire": "Hipodrom II", "slug": "hipodrom2", "dissolve": true, "dissolve_id": 1 }, "geometry": { "type": "MultiPolygon", "coordinates": [ [ [ [ 24.152028855858674, 45.782607128215304 ], [ 24.155245225864615, 45.77964748767711 ], [ 24.156622041182192, 45.780581522549461 ], [ 24.158027678183398, 45.781596889661955 ], [ 24.161262375340996, 45.784660520576452 ], [ 24.159243683833893, 45.785643243150858 ], [ 24.157259113351433, 45.786587891870234 ], [ 24.15594840366775, 45.787161300603621 ], [ 24.154901691501259, 45.787611029596462 ], [ 24.15196328264707, 45.788630470674136 ], [ 24.151385730853651, 45.787838851245311 ], [ 24.150931859252392, 45.788007447822956 ], [ 24.15033936999605, 45.786306124972988 ], [ 24.152735054268799, 45.785864453967989 ], [ 24.150658057766258, 45.7845457545477 ], [ 24.150485442962648, 45.784447838904477 ], [ 24.152289470982097, 45.782769284942709 ], [ 24.152028855858674, 45.782607128215304 ] ] ] ] } },
{ "type": "Feature", "properties": { "id": 9, "denumire": "Hipdrom III", "slug": "hipodrom3", "dissolve": true, "dissolve_id": 1 }, "geometry": { "type": "MultiPolygon", "coordinates": [ [ [ [ 24.147845271865055, 45.771868798822233 ], [ 24.149134480637517, 45.771995316338121 ], [ 24.152291490641421, 45.7727094202939 ], [ 24.156228842964442, 45.774643789190172 ], [ 24.156943884157041, 45.774082097346259 ], [ 24.158183176385389, 45.774913510366211 ], [ 24.15766096960078, 45.775420205252054 ], [ 24.156746986301577, 45.775932062406334 ], [ 24.156857794041734, 45.776223090012238 ], [ 24.157713397989085, 45.776653977291481 ], [ 24.159056480138897, 45.777100546313697 ], [ 24.159065320998419, 45.777151667518964 ], [ 24.154777904533731, 45.779330453073271 ], [ 24.155245236294185, 45.779647488628619 ], [ 24.152028866290209, 45.782607129166955 ], [ 24.152289481413508, 45.782769285894297 ], [ 24.150485453395174, 45.784447839856121 ], [ 24.147619512390765, 45.782822140621988 ], [ 24.147457055794096, 45.782740473077467 ], [ 24.146495896535974, 45.781306673442849 ], [ 24.14812708588488, 45.780758417354527 ], [ 24.14883734907065, 45.780708232012387 ], [ 24.148644443341624, 45.779493732507056 ], [ 24.148343082327116, 45.777510125954102 ], [ 24.148157579173578, 45.77589529708775 ], [ 24.148096289825606, 45.775062709454026 ], [ 24.148117098738748, 45.774254892170845 ], [ 24.148286772575972, 45.77319550218791 ], [ 24.147845271865055, 45.771868798822233 ] ] ] ] } },
{ "type": "Feature", "properties": { "id": 10, "denumire": "Hipodrom IV", "slug": "hipodrom4", "dissolve": true, "dissolve_id": 1 }, "geometry": { "type": "MultiPolygon", "coordinates": [ [ [ [ 24.138162026316706, 45.770368905028697 ], [ 24.138253697111615, 45.770333909152299 ], [ 24.139033641127966, 45.769330453265326 ], [ 24.140229736759018, 45.76995079844697 ], [ 24.141382948110092, 45.770365243468461 ], [ 24.142680106008463, 45.770533544364504 ], [ 24.144402250570522, 45.77153399600887 ], [ 24.145260051024444, 45.771810484947586 ], [ 24.146256479316698, 45.77193618340025 ], [ 24.146844119118423, 45.771800851912523 ], [ 24.147845282297919, 45.771868799775724 ], [ 24.1482867830087, 45.773195503141181 ], [ 24.148117098738748, 45.774254892170845 ], [ 24.14561155211338, 45.773497364288723 ], [ 24.141921219964971, 45.774709163028596 ], [ 24.140764357221787, 45.773127473925676 ], [ 24.140299801670178, 45.772530455167079 ], [ 24.13919178278941, 45.771454973781942 ], [ 24.138501514596406, 45.770837097420248 ], [ 24.138162026316706, 45.770368905028697 ] ] ] ] } },
{ "type": "Feature", "properties": { "id": 11, "denumire": "Orașul de Sus", "slug": "orasul_de_sus", "dissolve": false, "dissolve_id": 0 }, "geometry": { "type": "MultiPolygon", "coordinates": [ [ [ [ 24.144641817471094, 45.795246873281542 ], [ 24.14525713562205, 45.794825580034562 ], [ 24.146607499597923, 45.794064492845692 ], [ 24.147924523205415, 45.793346134359801 ], [ 24.148575320162522, 45.792988235392393 ], [ 24.149278840203614, 45.792572953215554 ], [ 24.149555357268405, 45.792576359175932 ], [ 24.151249680527346, 45.793438107631395 ], [ 24.152936619048223, 45.794283653114718 ], [ 24.154776909827422, 45.795279444373286 ], [ 24.156345271003278, 45.796098532419691 ], [ 24.15636857775182, 45.796209212907243 ], [ 24.156109082458038, 45.798127229542878 ], [ 24.15624256387278, 45.798191027349482 ], [ 24.15628341181085, 45.798474819068737 ], [ 24.156214921804093, 45.798685250062029 ], [ 24.155979804120307, 45.798609614936439 ], [ 24.155845889882688, 45.798827622829869 ], [ 24.154982474973806, 45.798891093542366 ], [ 24.153675124607702, 45.798842436525447 ], [ 24.152885584547878, 45.798721029315608 ], [ 24.152424451524784, 45.798603401277163 ], [ 24.152312611609666, 45.798884716092552 ], [ 24.15192021346882, 45.798920761873653 ], [ 24.151786668702115, 45.798860652429184 ], [ 24.15092443551325, 45.798719881227989 ], [ 24.150563137374142, 45.798605675967096 ], [ 24.150399060542298, 45.798469426747424 ], [ 24.149746171879208, 45.798330877688286 ], [ 24.14960437720211, 45.79824517665876 ], [ 24.149567244976716, 45.798160927721369 ], [ 24.149408931455479, 45.798087867017898 ], [ 24.149111331901167, 45.797323852502494 ], [ 24.148915598413023, 45.797311643570339 ], [ 24.148508267534424, 45.797068107085025 ], [ 24.148315743987578, 45.796845654999736 ], [ 24.14810308342372, 45.796684183836504 ], [ 24.14728448862477, 45.79633008586552 ], [ 24.146823037985037, 45.795984028534825 ], [ 24.146169707130014, 45.795625784466395 ], [ 24.144933261533946, 45.79534243579208 ], [ 24.144641817471094, 45.795246873281542 ] ] ] ] } },
{ "type": "Feature", "properties": { "id": 12, "denumire": "Orașul de Jos", "slug": "orasul_de_jos", "dissolve": false, "dissolve_id": 0 }, "geometry": { "type": "MultiPolygon", "coordinates": [ [ [ [ 24.14464182790763, 45.795246874232795 ], [ 24.144602529802569, 45.795241204393918 ], [ 24.144113164241773, 45.795777641521539 ], [ 24.143937044276125, 45.795739371909612 ], [ 24.14382910559014, 45.796875040213884 ], [ 24.143889403235512, 45.797451877375991 ], [ 24.14408502913226, 45.797971957356658 ], [ 24.145279611328299, 45.799487039437089 ], [ 24.147006237192592, 45.800883825552738 ], [ 24.149191660688416, 45.80167672277129 ], [ 24.150479880394499, 45.802102826557274 ], [ 24.151771551971922, 45.802429518524683 ], [ 24.154279774198891, 45.802465611176721 ], [ 24.15543550468702, 45.802130226062715 ], [ 24.156062678072036, 45.801813759773985 ], [ 24.156434563969203, 45.801610947578524 ], [ 24.156720088402025, 45.801529758859175 ], [ 24.156885255495354, 45.800769186179771 ], [ 24.157772747976058, 45.800893976010315 ], [ 24.158018064464908, 45.800549151007928 ], [ 24.158105822537038, 45.800207193174082 ], [ 24.158307276478649, 45.799458978203887 ], [ 24.15828148645501, 45.799258598642474 ], [ 24.158257777645613, 45.798538279818857 ], [ 24.158188437870958, 45.798423566107758 ], [ 24.157738403434561, 45.798350211650373 ], [ 24.15678304832365, 45.798142962939572 ], [ 24.156109092888705, 45.798127230492113 ], [ 24.156242574303395, 45.798191028298724 ], [ 24.156283422241462, 45.798474820017923 ], [ 24.156214932234761, 45.798685251011214 ], [ 24.155979814551092, 45.798609615885667 ], [ 24.155845900313558, 45.798827623779061 ], [ 24.154982485405156, 45.798891094491722 ], [ 24.153675135039734, 45.798842437474981 ], [ 24.152885594980312, 45.798721030265256 ], [ 24.152424461957462, 45.798603402226888 ], [ 24.152312622042437, 45.798884717042242 ], [ 24.15192022390179, 45.798920762823379 ], [ 24.151786679135146, 45.798860653378952 ], [ 24.150924445946735, 45.798719882177913 ], [ 24.150563147807809, 45.798605676917092 ], [ 24.150399070976047, 45.798469427697448 ], [ 24.14974618231328, 45.798330878638431 ], [ 24.149604387636263, 45.798245177608933 ], [ 24.149567255410876, 45.798160928671557 ], [ 24.149408941889721, 45.798087867968121 ], [ 24.149111342335495, 45.797323853452831 ], [ 24.14891560884746, 45.797311644520676 ], [ 24.148508277969057, 45.797068108035454 ], [ 24.148315754422288, 45.796845655950257 ], [ 24.148103093858538, 45.796684184787068 ], [ 24.147284499059992, 45.796330086816198 ], [ 24.146823048420483, 45.795984029485652 ], [ 24.146169717565769, 45.795625785417343 ], [ 24.144933271970338, 45.79534243674324 ], [ 24.14464182790763, 45.795246874232795 ] ] ] ] } },
{ "type": "Feature", "properties": { "id": 13, "denumire": "Ștrand", "slug": "strand", "dissolve": false, "dissolve_id": 2 }, "geometry": { "type": "MultiPolygon", "coordinates": [ [ [ [ 24.132527199536852, 45.793051864025578 ], [ 24.135152994391532, 45.792537743873027 ], [ 24.135411859462423, 45.793184613240705 ], [ 24.136357686331511, 45.792880075095951 ], [ 24.136849577089027, 45.793114890605487 ], [ 24.137308522080566, 45.793741772801376 ], [ 24.13844824052099, 45.793567665166918 ], [ 24.140782405407453, 45.792801897823878 ], [ 24.13954920302254, 45.792185902615849 ], [ 24.139692316489235, 45.791872590450424 ], [ 24.14025256061166, 45.79153555248508 ], [ 24.139529715077579, 45.790335680077938 ], [ 24.140323005442308, 45.789954719056581 ], [ 24.142260385331252, 45.788358384589223 ], [ 24.140399254671163, 45.786671139062435 ], [ 24.138429435308257, 45.783402179710642 ], [ 24.136646398872443, 45.78048661034331 ], [ 24.135574797209884, 45.778758737843496 ], [ 24.13431696917289, 45.779138827273179 ], [ 24.13430445308574, 45.779326830369328 ], [ 24.132768419488528, 45.779444140041768 ], [ 24.131114351166783, 45.778632130892746 ], [ 24.130026490533776, 45.778207333030316 ], [ 24.131420797013234, 45.779916220179345 ], [ 24.131278420924399, 45.78018116008554 ], [ 24.132501181462157, 45.781813486943321 ], [ 24.133302337510436, 45.782405370110816 ], [ 24.13367457779297, 45.782547928710045 ], [ 24.134034980037718, 45.78332992945667 ], [ 24.133388901439591, 45.783879910404053 ], [ 24.132062345974369, 45.785460592963275 ], [ 24.131983261109305, 45.785730045961401 ], [ 24.132218747353374, 45.786146997297841 ], [ 24.132755622618085, 45.786818829248695 ], [ 24.132876992121037, 45.78741226067411 ], [ 24.13292441475226, 45.78831549121459 ], [ 24.13283416322539, 45.78893284087318 ], [ 24.132505835565723, 45.789545692499928 ], [ 24.131938671821228, 45.790202406306705 ], [ 24.131200665013381, 45.790976048800587 ], [ 24.130878072710484, 45.791465332227148 ], [ 24.131005368626223, 45.79180084772748 ], [ 24.131872775994793, 45.792586716420061 ], [ 24.132527199536852, 45.793051864025578 ] ] ] ] } },
{ "type": "Feature", "properties": { "id": 14, "denumire": "Ștrand II", "slug": "strand2", "dissolve": false, "dissolve_id": 2 }, "geometry": { "type": "MultiPolygon", "coordinates": [ [ [ [ 24.131983271551782, 45.785730046915518 ], [ 24.132062356416789, 45.785460593917406 ], [ 24.133388911881163, 45.783879911358191 ], [ 24.134034990478913, 45.78332993041078 ], [ 24.133674588234275, 45.782547929664283 ], [ 24.133302347951926, 45.782405371065117 ], [ 24.132501191904034, 45.781813487897814 ], [ 24.131278431366788, 45.780181161040389 ], [ 24.131420807455527, 45.779916221134222 ], [ 24.130026500976662, 45.77820733398557 ], [ 24.129815182622352, 45.778090174599569 ], [ 24.12899275952806, 45.77776009769115 ], [ 24.128284049161863, 45.777526276861238 ], [ 24.128214526003276, 45.777920751645041 ], [ 24.12706077046704, 45.777782943105166 ], [ 24.12605684043314, 45.777764504492822 ], [ 24.12532117934219, 45.778638894867406 ], [ 24.126536120868977, 45.779653189945932 ], [ 24.128952425208499, 45.782436715279104 ], [ 24.131814080501044, 45.785618586378703 ], [ 24.131983271551782, 45.785730046915518 ] ] ] ] } },
{ "type": "Feature", "properties": { "id": 15, "denumire": "Terezian", "slug": "terezian", "dissolve": false, "dissolve_id": 0 }, "geometry": { "type": "MultiPolygon", "coordinates": [ [ [ [ 24.146982955686568, 45.818299430356767 ], [ 24.148987406893916, 45.815130190104718 ], [ 24.153905888020081, 45.814262570536869 ], [ 24.153893998564893, 45.812513180850985 ], [ 24.154168251203703, 45.811405442757355 ], [ 24.154804116237898, 45.810015551377667 ], [ 24.156901433846766, 45.808279083989426 ], [ 24.15847003520765, 45.807707567177992 ], [ 24.159110298639028, 45.807290414521873 ], [ 24.154722950453973, 45.805989672579784 ], [ 24.15416458409122, 45.805818932820138 ], [ 24.151560350168182, 45.805012269170092 ], [ 24.149562337241864, 45.804516397302919 ], [ 24.146565594147319, 45.80300535732372 ], [ 24.146182946438561, 45.80265316981329 ], [ 24.143952325280438, 45.80004876649641 ], [ 24.143416423481142, 45.799171433227308 ], [ 24.142692113850881, 45.798306116678944 ], [ 24.141845034473373, 45.797431810289503 ], [ 24.141370598899929, 45.797057418517433 ], [ 24.140491325562888, 45.796779397391752 ], [ 24.138314612158617, 45.796437831734558 ], [ 24.134902396127394, 45.795756344695242 ], [ 24.134336495374399, 45.796576993235533 ], [ 24.133364379066482, 45.797332749349472 ], [ 24.129982840261249, 45.799365329031204 ], [ 24.131438690739174, 45.800362594454 ], [ 24.131138808781724, 45.800623646909592 ], [ 24.131330666142432, 45.802119140441107 ], [ 24.131286045724295, 45.803010920312779 ], [ 24.131885696311581, 45.805213539555993 ], [ 24.132617317743666, 45.806097789523001 ], [ 24.138101243234075, 45.809256403025138 ], [ 24.141477001407626, 45.811114466100825 ], [ 24.142790663341891, 45.81164564398231 ], [ 24.144209151601441, 45.811857828058855 ], [ 24.144888836682121, 45.811887109480374 ], [ 24.146228117291933, 45.81175203851388 ], [ 24.146902994456084, 45.811593174873572 ], [ 24.147266250533637, 45.811961336887101 ], [ 24.146635132614108, 45.812273694826708 ], [ 24.145238357607354, 45.812900079257155 ], [ 24.144991810078661, 45.813191125436759 ], [ 24.145551705482205, 45.814017573717649 ], [ 24.145810604369565, 45.815680140617516 ], [ 24.145884505452834, 45.816124065433989 ], [ 24.145953157438687, 45.81716179979334 ], [ 24.146238828808276, 45.817830338819419 ], [ 24.146982955686568, 45.818299430356767 ] ] ] ] } },
{ "type": "Feature", "properties": { "id": 16, "denumire": "Țiglari", "slug": "tiglari", "dissolve": false, "dissolve_id": 0 }, "geometry": { "type": "MultiPolygon", "coordinates": [ [ [ [ 24.134463445277003, 45.816995926784543 ], [ 24.145238368045067, 45.812900080206255 ], [ 24.147266260970202, 45.811961337835996 ], [ 24.146903004892806, 45.81159317582258 ], [ 24.146228127729021, 45.811752039462966 ], [ 24.144888847119937, 45.811887110429616 ], [ 24.144209162039619, 45.81185782900819 ], [ 24.142790673780809, 45.811645644931893 ], [ 24.141477011847197, 45.811114467050629 ], [ 24.138101253675291, 45.809256403975589 ], [ 24.132617328187528, 45.806097790474631 ], [ 24.131885706755753, 45.805213540507857 ], [ 24.130260167270471, 45.80363188501574 ], [ 24.129040370698092, 45.804244642101416 ], [ 24.127556546476896, 45.804786845635668 ], [ 24.126014605631696, 45.805358142804252 ], [ 24.12397295692374, 45.805697178068051 ], [ 24.124865963653477, 45.807552763258577 ], [ 24.125801250213115, 45.807449764208684 ], [ 24.126746744554218, 45.809394410608412 ], [ 24.126213568821449, 45.809581111854435 ], [ 24.127333738579079, 45.810925179041739 ], [ 24.126849789316342, 45.81128020395149 ], [ 24.128336955843622, 45.812625725943946 ], [ 24.130426798277817, 45.811797926470589 ], [ 24.131841457998473, 45.813240928761765 ], [ 24.131528063739914, 45.813378272426938 ], [ 24.132413097972599, 45.814535087576431 ], [ 24.134851091927022, 45.813682983742716 ], [ 24.135821980005655, 45.814759810174458 ], [ 24.133517935706248, 45.815645197570973 ], [ 24.134463445277003, 45.816995926784543 ] ] ] ] } },
{ "type": "Feature", "properties": { "id": 17, "denumire": "Tilișca", "slug": "tilisca", "dissolve": false, "dissolve_id": 0 }, "geometry": { "type": "MultiPolygon", "coordinates": [ [ [ [ 24.12532118978762, 45.778638895823271 ], [ 24.125221154520517, 45.77865021958128 ], [ 24.123536099276553, 45.77749659808542 ], [ 24.120366695159781, 45.776112509687493 ], [ 24.118234337528452, 45.775209290006956 ], [ 24.115684350269174, 45.774251736519027 ], [ 24.116778878552505, 45.772301308397019 ], [ 24.117178948730682, 45.771769669442804 ], [ 24.119766898637916, 45.770069919870991 ], [ 24.121462313910637, 45.771644213816423 ], [ 24.122887376360147, 45.773079359287273 ], [ 24.124626126160994, 45.774350293624799 ], [ 24.127342849395909, 45.773003374409939 ], [ 24.127879531197561, 45.773061223037445 ], [ 24.127772057574305, 45.776008170489838 ], [ 24.127789848771013, 45.776344196380379 ], [ 24.127978506347468, 45.776681529108458 ], [ 24.128723454491226, 45.777176279249908 ], [ 24.128284059605626, 45.777526277816811 ], [ 24.128214536447103, 45.777920752600572 ], [ 24.127060780911467, 45.777782944060903 ], [ 24.126056850878104, 45.777764505448715 ], [ 24.12532118978762, 45.778638895823271 ] ] ] ] } },
{ "type": "Feature", "properties": { "id": 18, "denumire": "Valea Aurie", "slug": "valea_aurie", "dissolve": false, "dissolve_id": 0 }, "geometry": { "type": "MultiPolygon", "coordinates": [ [ [ [ 24.119609275651616, 45.769960546213433 ], [ 24.119766909085588, 45.770069920828703 ], [ 24.121462324357537, 45.771644214773673 ], [ 24.122887386806404, 45.773079360244154 ], [ 24.12462613660642, 45.774350294581254 ], [ 24.127342859839789, 45.773003375366201 ], [ 24.127820540068111, 45.772720179399975 ], [ 24.131491946224198, 45.776391936500865 ], [ 24.134700104154053, 45.774798682911502 ], [ 24.134352862642046, 45.774409102267803 ], [ 24.132705993583077, 45.773388918103372 ], [ 24.131424064060209, 45.771868999082862 ], [ 24.130393629487969, 45.771463451085133 ], [ 24.129534289384047, 45.770674941864371 ], [ 24.129333811810891, 45.769988195478689 ], [ 24.1293989257417, 45.769752226088968 ], [ 24.129374271415507, 45.769609620445614 ], [ 24.129342581992606, 45.769179439162087 ], [ 24.128930767049436, 45.768257298326859 ], [ 24.129395090098132, 45.768274280382734 ], [ 24.129396557804824, 45.767441284020308 ], [ 24.129110210481752, 45.766845243284742 ], [ 24.12854258147869, 45.766805973477048 ], [ 24.127104384698995, 45.764983851153239 ], [ 24.121161000712078, 45.767184627772231 ], [ 24.122209884772104, 45.768117078107032 ], [ 24.119609275651616, 45.769960546213433 ] ] ] ] } },
{ "type": "Feature", "properties": { "id": 19, "denumire": "Vasile Aaron", "slug": "vasile_aaron", "dissolve": false, "dissolve_id": 0 }, "geometry": { "type": "MultiPolygon", "coordinates": [ [ [ [ 24.173379074441311, 45.789481557430079 ], [ 24.17551043252179, 45.78941000770822 ], [ 24.176463191000813, 45.788915667519149 ], [ 24.177690349251705, 45.788135857874749 ], [ 24.177876732129342, 45.787998815834548 ], [ 24.180142519516384, 45.786061603129482 ], [ 24.177784759141318, 45.784203960217162 ], [ 24.176334902367039, 45.783553965723947 ], [ 24.173953706722312, 45.783165920465215 ], [ 24.173105617133128, 45.782731180128863 ], [ 24.171715819834574, 45.7821809849179 ], [ 24.170980640131528, 45.78216220687478 ], [ 24.16976756475982, 45.781868547698828 ], [ 24.169706733739908, 45.781181548583433 ], [ 24.169015167863311, 45.780942732460119 ], [ 24.168526447446979, 45.780751072249565 ], [ 24.167555451916392, 45.781305090650761 ], [ 24.166225644582639, 45.782015520175491 ], [ 24.164190798054893, 45.783101642187177 ], [ 24.16449473822836, 45.783396619819563 ], [ 24.165271023387128, 45.783877923172561 ], [ 24.165872397048361, 45.78424239620108 ], [ 24.168943386990826, 45.785651473958744 ], [ 24.169254148966829, 45.785787427516546 ], [ 24.173309936470996, 45.787736053563933 ], [ 24.173302614040061, 45.788230427854153 ], [ 24.173363167879778, 45.788809937958895 ], [ 24.173379074441311, 45.789481557430079 ] ] ] ] } },
{ "type": "Feature", "properties": { "id": 20, "denumire": "Veteranilor de Război", "slug": "veteranilor_de_razboi", "dissolve": false, "dissolve_id": 0 }, "geometry": { "type": "MultiPolygon", "coordinates": [ [ [ [ 24.130787736462569, 45.820136741208728 ], [ 24.132828975236777, 45.822388615840353 ], [ 24.133361751997992, 45.822481338933848 ], [ 24.136572641327579, 45.822865758455862 ], [ 24.139292941606378, 45.823662887109357 ], [ 24.141240512163783, 45.824228419916352 ], [ 24.144188414851616, 45.820722414613783 ], [ 24.145560405532173, 45.819469763429353 ], [ 24.146772036256564, 45.818166458492726 ], [ 24.146238839245882, 45.817830339767788 ], [ 24.143965918774224, 45.818192185407192 ], [ 24.142749331141228, 45.814585022167911 ], [ 24.141773875736643, 45.815045242609749 ], [ 24.140301282072592, 45.816344115058989 ], [ 24.138724851041175, 45.817643528103353 ], [ 24.137033746006107, 45.817904831219941 ], [ 24.13526412754937, 45.818767424697555 ], [ 24.134362363920086, 45.81843275883611 ], [ 24.133184950839674, 45.818278714341737 ], [ 24.13246522261062, 45.818348481712789 ], [ 24.131753172008004, 45.818665516305586 ], [ 24.131207927644073, 45.81912892049516 ], [ 24.130995611858019, 45.819436319879969 ], [ 24.130787736462569, 45.820136741208728 ] ] ] ] } },
{ "type": "Feature", "properties": { "id": 21, "denumire": "Tineretului", "slug": "tineretului", "dissolve": false, "dissolve_id": 0 }, "geometry": { "type": "MultiPolygon", "coordinates": [ [ [ [ 24.127326130915012, 45.813406997860504 ], [ 24.12511446261442, 45.814522670124511 ], [ 24.123171102871655, 45.81543211190543 ], [ 24.124837395032245, 45.816261787982668 ], [ 24.123875909335837, 45.816799889158332 ], [ 24.125065873183697, 45.817865054188118 ], [ 24.126496022919575, 45.817338594188008 ], [ 24.128321603971667, 45.819048120697936 ], [ 24.128866978791741, 45.818823883258602 ], [ 24.129084319346031, 45.819056633574696 ], [ 24.129145192700086, 45.8190960612908 ], [ 24.134463455720805, 45.816995927734681 ], [ 24.133517946150448, 45.815645198521388 ], [ 24.135821990448552, 45.814759811124631 ], [ 24.13485110237033, 45.813682984693187 ], [ 24.132413108417289, 45.81453508852713 ], [ 24.131528074184978, 45.813378273377893 ], [ 24.131841468443351, 45.813240929712691 ], [ 24.130426808723328, 45.811797927421928 ], [ 24.128336966290313, 45.812625726895455 ], [ 24.12701218911549, 45.813087517252633 ], [ 24.127326130915012, 45.813406997860504 ] ] ] ] } },
{ "type": "Feature", "properties": { "id": 22, "denumire": "Hipodrom", "slug": "hipodrom", "dissolve": false, "dissolve_id": 0 }, "geometry": { "type": "MultiPolygon", "coordinates": [ [ [ [ 24.146256479316698, 45.77193618340025 ], [ 24.145260051024444, 45.771810484947586 ], [ 24.144402250570522, 45.77153399600887 ], [ 24.142680106008463, 45.770533544364504 ], [ 24.141382948110092, 45.770365243468461 ], [ 24.140229736759018, 45.76995079844697 ], [ 24.139033641127966, 45.769330453265326 ], [ 24.138253697111615, 45.770333909152299 ], [ 24.138162026316706, 45.770368905028697 ], [ 24.138501514596406, 45.770837097420248 ], [ 24.13919178278941, 45.771454973781942 ], [ 24.140299801670178, 45.772530455167079 ], [ 24.140764357221787, 45.773127473925676 ], [ 24.141921219964971, 45.774709163028596 ], [ 24.14561155211338, 45.773497364288723 ], [ 24.148117098738748, 45.774254892170845 ], [ 24.148096289825606, 45.775062709454026 ], [ 24.148157579173578, 45.77589529708775 ], [ 24.148343082327116, 45.777510125954102 ], [ 24.148644443341624, 45.779493732507056 ], [ 24.14883734907065, 45.780708232012387 ], [ 24.14812708588488, 45.780758417354527 ], [ 24.146495896535974, 45.781306673442849 ], [ 24.147457055794096, 45.782740473077467 ], [ 24.147619512390765, 45.782822140621988 ], [ 24.15048544627853, 45.784447835819222 ], [ 24.150485442962648, 45.784447838904477 ], [ 24.150658057766258, 45.7845457545477 ], [ 24.152735054268799, 45.785864453967989 ], [ 24.15033936999605, 45.786306124972988 ], [ 24.150931859252392, 45.788007447822956 ], [ 24.151385730853651, 45.787838851245311 ], [ 24.15196328264707, 45.788630470674136 ], [ 24.154901691501259, 45.787611029596462 ], [ 24.15594840366775, 45.787161300603621 ], [ 24.157259113351433, 45.786587891870234 ], [ 24.159243683833893, 45.785643243150858 ], [ 24.161262375340996, 45.784660520576452 ], [ 24.161262370948247, 45.784660516416011 ], [ 24.163687890151614, 45.783370048079846 ], [ 24.166225634158707, 45.782015519225787 ], [ 24.167555441493235, 45.781305089701164 ], [ 24.1664152115166, 45.780379112207989 ], [ 24.1648456758641, 45.779914849588323 ], [ 24.163257127986967, 45.779439677282021 ], [ 24.162825045765011, 45.779186604529286 ], [ 24.162294592530689, 45.77857945239392 ], [ 24.16084732787979, 45.778034075613128 ], [ 24.160048829920665, 45.778016104417802 ], [ 24.159399260606715, 45.777671398000031 ], [ 24.159065313598582, 45.777151671279427 ], [ 24.159065320998419, 45.777151667518964 ], [ 24.159056480138897, 45.777100546313697 ], [ 24.157713397989085, 45.776653977291481 ], [ 24.156857794041734, 45.776223090012238 ], [ 24.156746986301577, 45.775932062406334 ], [ 24.15766096960078, 45.775420205252054 ], [ 24.158183176385389, 45.774913510366211 ], [ 24.156943884157041, 45.774082097346259 ], [ 24.156228842964442, 45.774643789190172 ], [ 24.152291490641421, 45.7727094202939 ], [ 24.149134480637517, 45.771995316338121 ], [ 24.14784528232212, 45.771868799848448 ], [ 24.147845282297919, 45.771868799775724 ], [ 24.147845279973737, 45.771868799617984 ], [ 24.147845271865055, 45.771868798822233 ], [ 24.147845271948615, 45.771868799073332 ], [ 24.146844119118423, 45.771800851912523 ], [ 24.146256479316698, 45.77193618340025 ] ] ] ] } }
]
}
